NORAD_CAT_ID,OBJECT_NAME,OBJECT_TYPE,EPOCH,MEAN_MOTION,ECCENTRICITY,INCLINATION,RA_OF_ASC_NODE,ARG_OF_PERICENTER,MEAN_ANOMALY,BSTAR,MEAN_MOTION_DOT,MEAN_MOTION_DDOT,TLE_LINE0,TLE_LINE1,TLE_LINE2,SEMIMAJOR_AXIS,PERIOD,APOGEE,PERIGEE,DECAYED
51790.0,STARLINK-3631,PAYLOAD,2023-10-29 14:14:56,15.08844989,0.0001416,53.2159,259.2211,92.5347,267.5807,5.0413e-05,5.15e-06,0.0,0 STARLINK-3631,1 51790U 22017Y   23302.59371210  .00000515  00000-0  50413-4 0  9990,2 51790  53.2159 259.2211 0001416  92.5347 267.5807 15.08844989 93826,6917.865,95.437,540.71,538.751,0.0
51790.0,STARLINK-3631,PAYLOAD,2023-10-29 20:36:30,15.08834993,0.0002159,53.218,258.0348,90.5066,269.6174,0.00014405,2.005e-05,0.0,0 STARLINK-3631,1 51790U 22017Y   23302.85868083  .00002005  00000-0  14405-3 0  9994,2 51790  53.2180 258.0348 0002159  90.5066 269.6174 15.08834993 93867,6917.896,95.438,541.254,538.267,0.0
51790.0,STARLINK-3631,PAYLOAD,2023-10-30 14:05:44,15.08839789,0.0001626,53.2169,254.7588,86.2392,273.8786,9.5889e-05,1.238e-05,0.0,0 STARLINK-3631,1 51790U 22017Y   23303.58731879  .00001238  00000-0  95889-4 0  9990,2 51790  53.2169 254.7588 0001626  86.2392 273.8786 15.08839789 93971,6917.881,95.438,540.871,538.621,0.0
51790.0,STARLINK-3631,PAYLOAD,2023-10-31 04:24:12,15.08843286,0.0001461,53.2163,252.085,87.9299,272.186,8.7795e-05,1.11e-05,0.0,0 STARLINK-3631,1 51790U 22017Y   23304.18347914  .00001110  00000-0  87795-4 0  9996,2 51790  53.2163 252.0850 0001461  87.9299 272.1860 15.08843286 94062,6917.87,95.437,540.746,538.725,0.0
51790.0,STARLINK-3631,PAYLOAD,2023-10-31 13:56:31,15.08844072,0.0001473,53.2179,250.3009,89.3791,270.737,9.0617e-05,1.155e-05,0.0,0 STARLINK-3631,1 51790U 22017Y   23304.58091945  .00001155  00000-0  90617-4 0  9996,2 51790  53.2179 250.3009 0001473  89.3791 270.7370 15.08844072 94123,6917.868,95.437,540.752,538.714,0.0
51790.0,STARLINK-3631,PAYLOAD,2023-10-31 20:18:04,15.08838599,0.0001683,53.2181,249.1123,88.3092,271.8093,0.00014096,1.956e-05,0.0,0 STARLINK-3631,1 51790U 22017Y   23304.84588299  .00001956  00000-0  14096-3 0  9993,2 51790  53.2181 249.1123 0001683  88.3092 271.8093 15.08838599 94160,6917.885,95.438,540.914,538.585,0.0
51790.0,STARLINK-3631,PAYLOAD,2023-11-01 05:50:21,15.08857078,0.0001657,53.2183,247.3246,101.8333,258.2845,0.00019369,2.797e-05,0.0,0 STARLINK-3631,1 51790U 22017Y   23305.24330837  .00002797  00000-0  19369-3 0  9993,2 51790  53.2183 247.3246 0001657 101.8333 258.2845 15.08857078 94222,6917.828,95.436,540.839,538.547,0.0
51790.0,STARLINK-3631,PAYLOAD,2023-11-01 13:47:18,15.08839982,0.0001852,53.2187,245.8388,87.5742,272.5462,5.1769e-05,5.36e-06,0.0,0 STARLINK-3631,1 51790U 22017Y   23305.57452275  .00000536  00000-0  51769-4 0  9990,2 51790  53.2187 245.8388 0001852  87.5742 272.5462 15.08839982 94270,6917.88,95.438,541.027,538.464,0.0
51790.0,STARLINK-3631,PAYLOAD,2023-11-01 20:08:51,15.08837071,0.00014,53.2186,244.6523,79.3974,280.7176,0.00012085,1.636e-05,0.0,0 STARLINK-3631,1 51790U 22017Y   23305.83948176  .00001636  00000-0  12085-3 0  9998,2 51790  53.2186 244.6523 0001400  79.3974 280.7176 15.08837071 94317,6917.889,95.438,540.723,538.786,0.0
51790.0,STARLINK-3631,PAYLOAD,2023-11-02 02:30:23,15.08843798,0.0001187,53.2176,243.4607,92.9428,267.17,0.00019688,2.847e-05,0.0,0 STARLINK-3631,1 51790U 22017Y   23306.10443543  .00002847  00000-0  19688-3 0  9998,2 51790  53.2176 243.4607 0001187  92.9428 267.1700 15.08843798 94352,6917.869,95.437,540.555,538.913,0.0
51790.0,STARLINK-3631,PAYLOAD,2023-11-02 19:59:38,15.08841292,0.0001406,53.2156,240.191,85.7165,274.3988,3.5796e-05,2.82e-06,0.0,0 STARLINK-3631,1 51790U 22017Y   23306.83307899  .00000282  00000-0  35796-4 0  9991,2 51790  53.2156 240.1910 0001406  85.7165 274.3988 15.08841292 94460,6917.876,95.437,540.714,538.769,0.0
51790.0,STARLINK-3631,PAYLOAD,2023-11-03 05:31:56,15.08848863,0.0001468,53.2163,238.403,105.4107,254.7047,4.2808e-05,3.94e-06,0.0,0 STARLINK-3631,1 51790U 22017Y   23307.23051373  .00000394  00000-0  42808-4 0  9995,2 51790  53.2163 238.4030 0001468 105.4107 254.7047 15.08848863 94521,6917.853,95.437,540.734,538.703,0.0
51790.0,STARLINK-3631,PAYLOAD,2023-11-04 02:11:57,15.08838785,0.0001388,53.2159,234.5398,93.2875,266.8276,5.1193e-05,5.27e-06,0.0,0 STARLINK-3631,1 51790U 22017Y   23308.09164112  .00000527  00000-0  51193-4 0  9991,2 51790  53.2159 234.5398 0001388  93.2875 266.8276 15.08838785 94651,6917.884,95.438,540.709,538.789,0.0
51790.0,STARLINK-3631,PAYLOAD,2023-11-04 11:44:16,15.08841312,0.0001424,53.2155,232.7564,92.7142,267.4013,2.8037e-05,1.58e-06,0.0,0 STARLINK-3631,1 51790U 22017Y   23308.48908012  .00000158  00000-0  28037-4 0  9990,2 51790  53.2155 232.7564 0001424  92.7142 267.4013 15.08841312 94717,6917.876,95.437,540.726,538.756,0.0
51790.0,STARLINK-3631,PAYLOAD,2023-11-04 22:51:58,15.08838189,0.0001442,53.2159,230.6762,99.3629,260.7526,0.00012013,1.624e-05,0.0,0 STARLINK-3631,1 51790U 22017Y   23308.95276439  .00001624  00000-0  12013-3 0  9998,2 51790  53.2159 230.6762 0001442  99.3629 260.7526 15.08838189 94781,6917.886,95.438,540.748,538.753,0.0
51790.0,STARLINK-3631,PAYLOAD,2023-11-05 02:02:44,15.08854275,0.0001281,53.2153,230.0772,86.6455,273.4684,0.00030864,4.629e-05,0.0,0 STARLINK-3631,1 51790U 22017Y   23309.08523513  .00004629  00000-0  30864-3 0  9993,2 51790  53.2153 230.0772 0001281  86.6455 273.4684 15.08854275 94800,6917.837,95.437,540.588,538.816,0.0
51790.0,STARLINK-3631,PAYLOAD,2023-11-05 11:35:02,15.08854782,0.0001304,53.2157,228.2941,84.5197,275.5944,0.0002663,3.954e-05,0.0,0 STARLINK-3631,1 51790U 22017Y   23309.48267263  .00003954  00000-0  26630-3 0  9990,2 51790  53.2157 228.2941 0001304  84.5197 275.5944 15.08854782 94868,6917.835,95.437,540.602,538.798,0.0
51790.0,STARLINK-3631,PAYLOAD,2023-11-05 22:42:45,15.08848809,0.0001558,53.2171,226.2171,95.7817,264.3353,0.00013134,1.803e-05,0.0,0 STARLINK-3631,1 51790U 22017Y   23309.94635638  .00001803  00000-0  13134-3 0  9992,2 51790  53.2171 226.2171 0001558  95.7817 264.3353 15.08848809 94932,6917.853,95.437,540.796,538.641,0.0
51790.0,STARLINK-3631,PAYLOAD,2023-11-06 03:28:53,15.08878747,0.000154,53.2159,225.3223,77.7022,282.4142,0.00055162,8.511e-05,0.0,0 STARLINK-3631,1 51790U 22017Y   23310.14505903  .00008511  00000-0  55162-3 0  9997,2 51790  53.2159 225.3223 0001540  77.7022 282.4142 15.08878747 94969,6917.762,95.435,540.692,538.562,0.0
51790.0,STARLINK-3631,PAYLOAD,2023-11-06 11:25:51,15.08810841,0.0001393,53.2158,223.8361,105.6808,254.4338,-0.00047071,-7.765e-05,0.0,0 STARLINK-3631,1 51790U 22017Y   23310.47629028 -.00007765  00000-0 -47071-3 0  9990,2 51790  53.2158 223.8361 0001393 105.6808 254.4338 15.08810841 95017,6917.97,95.439,540.798,538.871,0.0
51790.0,STARLINK-3631,PAYLOAD,2023-11-06 22:33:34,15.0880224,0.0001728,53.2163,221.7538,103.2281,256.8904,-0.00047632,-7.853e-05,0.0,0 STARLINK-3631,1 51790U 22017Y   23310.93998330 -.00007853  00000-0 -47632-3 0  9997,2 51790  53.2163 221.7538 0001728 103.2281 256.8904 15.08802240 95083,6917.996,95.44,541.056,538.665,0.0
51790.0,STARLINK-3631,PAYLOAD,2023-11-07 03:19:43,15.08817743,0.0001509,53.2162,220.8612,99.5404,260.5758,-0.00037167,-6.195e-05,0.0,0 STARLINK-3631,1 51790U 22017Y   23311.13869848 -.00006195  00000-0 -37167-3 0  9991,2 51790  53.2162 220.8612 0001509  99.5404 260.5758 15.08817743 95113,6917.948,95.439,540.857,538.77,0.0
51790.0,STARLINK-3631,PAYLOAD,2023-11-07 11:16:38,15.0882784,0.0001424,53.2159,219.3752,107.3712,252.7436,-0.00015032,-2.679e-05,0.0,0 STARLINK-3631,1 51790U 22017Y   23311.46989567 -.00002679  00000-0 -15032-3 0  9998,2 51790  53.2159 219.3752 0001424 107.3712 252.7436 15.08827840 95163,6917.918,95.438,540.768,538.797,0.0
51790.0,STARLINK-3631,PAYLOAD,2023-11-08 03:10:29,15.08862283,0.0001589,53.2171,216.3973,107.6976,252.419,0.00019956,2.891e-05,0.0,0 STARLINK-3631,1 51790U 22017Y   23312.13228114  .00002891  00000-0  19956-3 0  9990,2 51790  53.2171 216.3973 0001589 107.6976 252.4190 15.08862283 95261,6917.812,95.436,540.777,538.578,0.0
51790.0,STARLINK-3631,PAYLOAD,2023-11-08 22:15:08,15.08836484,0.0001948,53.2168,212.8305,121.2294,238.8889,0.0004777,7.322e-05,0.0,0 STARLINK-3631,1 51790U 22017Y   23312.92717668  .00007322  00000-0  47770-3 0  9993,2 51790  53.2168 212.8305 0001948 121.2294 238.8889 15.08836484 95381,6917.891,95.438,541.104,538.409,0.0
51790.0,STARLINK-3631,PAYLOAD,2023-11-08 23:50:30,15.08836564,0.000156,53.2169,212.5373,112.8913,247.2244,0.00032407,4.873e-05,0.0,0 STARLINK-3631,1 51790U 22017Y   23312.99341207  .00004873  00000-0  32407-3 0  9991,2 51790  53.2169 212.5373 0001560 112.8913 247.2244 15.08836564 95397,6917.891,95.438,540.835,538.677,0.0
51790.0,STARLINK-3631,PAYLOAD,2023-11-09 22:05:54,15.08845616,0.0001449,53.2169,208.3742,112.6348,247.4797,3.9162e-05,3.35e-06,0.0,0 STARLINK-3631,1 51790U 22017Y   23313.92077333  .00000335  00000-0  39162-4 0  9996,2 51790  53.2169 208.3742 0001449 112.6348 247.4797 15.08845616 95535,6917.863,95.437,540.731,538.726,0.0
51790.0,STARLINK-3631,PAYLOAD,2023-11-09 23:41:17,15.08845753,0.000133,53.216,208.0759,107.824,252.2897,4.0635e-05,3.59e-06,0.0,0 STARLINK-3631,1 51790U 22017Y   23313.98701243  .00000359  00000-0  40635-4 0  9999,2 51790  53.2160 208.0759 0001330 107.8240 252.2897 15.08845753 95545,6917.863,95.437,540.648,538.808,0.0
51790.0,STARLINK-3631,PAYLOAD,2023-11-10 20:21:18,15.0883965,0.0001488,53.2168,204.2079,109.9169,250.1983,0.0001135,1.519e-05,0.0,0 STARLINK-3631,1 51790U 22017Y   23314.84813069  .00001519  00000-0  11350-3 0  9995,2 51790  53.2168 204.2079 0001488 109.9169 250.1983 15.08839650 95679,6917.881,95.438,540.776,538.717,0.0
51790.0,STARLINK-3631,PAYLOAD,2023-11-10 21:56:41,15.08837293,0.000152,53.2167,203.9107,109.749,250.3666,0.00015084,2.113e-05,0.0,0 STARLINK-3631,1 51790U 22017Y   23314.91437021  .00002113  00000-0  15084-3 0  9992,2 51790  53.2167 203.9107 0001520 109.7490 250.3666 15.08837293 95680,6917.889,95.438,540.805,538.702,0.0
